STARLINK-2657           
1 48655U 21044T   23327.83870006  .00004392  00000+0  31362-3 0  9993
2 48655  53.0550 278.3920 0001740 104.8319 255.2863 15.06393992137578
STARLINK-2701           
1 48656U 21044U   23327.83500972 -.00002642  00000+0 -15859-3 0  9997
2 48656  53.0536 278.4045 0001596 105.3495 254.7671 15.06389891137576
STARLINK-2734           
1 48657U 21044V   23327.20004369 -.00000162  00000+0  80482-5 0  9998
2 48657  53.0531 280.8948 0001325  94.1499 265.9642 15.06389745137480
STARLINK-2647           
1 48658U 21044W   23327.29686344  .00003974  00000+0  28551-3 0  9997
2 48658  53.0541 280.8189 0001488  96.5250 263.5908 15.06404199138391
STARLINK-2717           
1 48659U 21044X   23327.29317614  .00007663  00000+0  53269-3 0  9992
2 48659  53.0544 280.8374 0001604 113.2704 246.8454 15.06408442137497
STARLINK-2688           
1 48660U 21044Y   23327.28948765  .00002401  00000+0  18000-3 0  9999
2 48660  53.0531 280.8487 0001576 106.6317 253.4845 15.06402678137497
STARLINK-2708           
1 48661U 21044Z   23327.22406258  .00006467  00000+0  45267-3 0  9991
2 48661  53.0540 271.1495 0001559  90.0828 270.0340 15.06395366137629
STARLINK-2726           
1 48662U 21044AA  23327.22037854 -.00002901  00000+0 -17598-3 0  9991
2 48662  53.0549 271.1624 0001525  88.0768 272.0396 15.06393705137624
STARLINK-2667           
1 48663U 21044AB  23327.28303819 -.00001822  00000+0 -10347-3 0  9991
2 48663  53.0539 270.8846 0001631  96.4327 263.6848 15.06394738137634
STARLINK-2709           
1 48664U 21044AC  23327.27935476  .00004361  00000+0  31154-3 0  9999
2 48664  53.0550 270.9001 0001607  84.4624 275.6549 15.06396447137632
STARLINK-2653           
1 48665U 21044AD  23327.82393886 -.00005857  00000+0 -37499-3 0  9995
2 48665  53.0544 268.4545 0001498 111.1042 249.0108 15.06363882137713
STARLINK-2666           
1 48666U 21044AE  23327.83599980  .00005820  00000+0  40943-3 0  9996
2 48666  53.0537 268.8747 0001510  87.8032 272.3130 15.06388041137704
STARLINK-2735           
1 48667U 21044AF  23327.87278506  .00013363  00000+0  91408-3 0  9992
2 48667  53.0542 268.2358 0001586  88.7623 271.3548 15.06409786137726
STARLINK-2738           
1 48668U 21044AG  23327.27200866  .00017422  00000+0  11859-2 0  9992
2 48668  53.0549 270.9306 0002337 127.7251 232.3950 15.06389597137634
STARLINK-2707           
1 48669U 21044AH  23327.86542737  .00004985  00000+0  35341-3 0  9997
2 48669  53.0554 268.2715 0002026 105.7544 254.3669 15.06390690137717
STARLINK-2763           
1 48670U 21044AJ  23327.86173105  .00013638  00000+0  93211-3 0  9993
2 48670  53.0540 268.2842 0001700 101.2440 258.8740 15.06424136137711
STARLINK-2745           
1 48671U 21044AK  23327.85710696 -.00001230  00000+0 -63727-4 0  9992
2 48671  53.0545 268.2996 0001774 106.3568 253.7616 15.06391866137714
STARLINK-2705           
1 48672U 21044AL  23327.85435544  .00014350  00000+0  97999-3 0  9991
2 48672  53.0545 268.3146 0001493 103.1903 256.9253 15.06412147137717
STARLINK-2711           
1 48673U 21044AM  23327.25355433  .00003609  00000+0  26105-3 0  9990
2 48673  53.0533 271.0157 0001667  82.7510 277.3669 15.06401273137623
STARLINK-2712           
1 48674U 21044AN  23327.85806820  .00007872  00000+0  54690-3 0  9994
2 48674  53.0550 268.4192 0001855  88.4681 271.6520 15.06390114137717
STARLINK-2737           
1 48675U 21044AP  23327.84330111  .00014884  00000+0  10157-2 0  9999
2 48675  53.0556 268.3670 0001711 110.0822 250.0351 15.06410874137713
STARLINK-2746           
1 48676U 21044AQ  23327.64057661  .00015640  00000+0  10664-2 0  9998
2 48676  53.0536 269.2798 0001490  84.7409 275.3750 15.06404533137689
STARLINK-2719           
1 48677U 21044AR  23327.83497977  .00011664  00000+0  80049-3 0  9995
2 48677  53.0531 268.3976 0001433  88.5851 271.5302 15.06406477137717
STARLINK-2615           
1 48678U 21044AS  23327.23512681  .00001882  00000+0  14525-3 0  9997
2 48678  53.0536 271.1008 0001528  80.1085 280.0076 15.06382573137626
STARLINK-2648           
1 48679U 21044AT  23327.23143820 -.00001819  00000+0 -10328-3 0  9992
2 48679  53.0541 271.1164 0001700  81.6733 278.4449 15.06391384137629
STARLINK-2649           
1 48680U 21044AU  23327.22774735  .00004694  00000+0  33386-3 0  9999
2 48680  53.0537 271.1311 0001160  92.5910 267.5211 15.06396965137624
STARLINK-2725           
1 48681U 21044AV  23327.09417220  .00021731  00000+0  14746-2 0  9997
2 48681  53.0533 241.9763 0001788  70.5617 289.5565 15.06365883138018
STARLINK-2743           
1 48682U 21044AW  23327.95389465  .00014130  00000+0  96518-3 0  9995
2 48682  53.0535 228.0374 0001773 105.0915 255.0270 15.06415995138284
STARLINK-2756           
1 48683U 21044AX  23327.90964588  .00014525  00000+0  99164-3 0  9994
2 48683  53.0526 228.0809 0001514  81.5431 278.5729 15.06413521138284
STARLINK-2741           
1 48684U 21044AY  23327.93227762  .00005874  00000+0  41306-3 0  9996
2 48684  53.0545 243.3275 0001868 115.6456 244.4727 15.06387954138078
STARLINK-2751           
1 48685U 21044AZ  23327.94652122  .00005829  00000+0  41002-3 0  9993
2 48685  53.0540 227.9476 0002278 128.9666 231.1526 15.06387902138298
STARLINK-2629           
1 48686U 21044BA  23327.94056295  .00001743  00000+0  13591-3 0  9996
2 48686  53.0538 233.2151 0001483  84.7855 275.3303 15.06388643138210
STARLINK-2627           
1 48687U 21044BB  23327.91564622  .00003637  00000+0  26298-3 0  9994
2 48687  53.0536 223.0428 0001427  94.4902 265.6250 15.06390530138358
STARLINK-2742           
1 48688U 21044BC  23327.91933038  .00000521  00000+0  53874-4 0  9996
2 48688  53.0538 223.0255 0001927 108.1940 251.9259 15.06394115138359
STARLINK-2617           
1 48689U 21044BD  23327.92440338  .00015176  00000+0  10357-2 0  9993
2 48689  53.0534 227.9752 0001308  91.7603 268.3535 15.06394305138289
STARLINK-2740           
1 48690U 21044BE  23327.93083577  .00005214  00000+0  36859-3 0  9992
2 48690  53.0540 237.9722 0001685 101.6536 258.4642 15.06405203138144
STARLINK-2750           
1 48691U 21044BF  23327.90366249  .00015686  00000+0  10704-2 0  9994
2 48691  53.0525 233.0915 0001024  48.1399 311.9677 15.06373058138211
STARLINK-2752           
1 48692U 21044BG  23327.88894014  .00008636  00000+0  59821-3 0  9999
2 48692  53.0532 233.2835 0001744  98.3302 261.7884 15.06384129138216
STARLINK-2618           
1 48693U 21044BH  23327.89672306  .00014651  00000+0  99981-3 0  9994
2 48693  53.0547 238.1273 0001755  65.8268 294.2904 15.06421857138141
STARLINK-2748           
1 48694U 21044BJ  23327.93128677 -.00000466  00000+0 -12378-4 0  9994
2 48694  53.0543 242.9652 0001619 102.3735 257.7435 15.06385889138076
STARLINK-2616           
1 48695U 21044BK  23327.95435752  .00009155  00000+0  63294-3 0  9996
2 48695  53.0535 242.9208 0001798  62.3731 297.7440 15.06386317138082
STARLINK-2753           
1 48696U 21044BL  23327.94467838  .00012228  00000+0  83896-3 0  9991
2 48696  53.0548 247.9602 0001517 107.1691 252.9464 15.06372714138010
STARLINK-2715           
1 48697U 21044BM  23327.95165886  .00051008  00000+0  29972-2 0  9994
2 48697  53.0531 246.9566 0006593 118.7371 241.4283 15.11204861138029
STARLINK-3003           
1 48879U 21059A   23327.93727105 -.00001178  00000+0 -87134-4 0  9999
2 48879  97.6600  90.0479 0001852 109.9357 250.2066 15.01251829133265
STARLINK-3004           
1 48880U 21059B   23327.86844625 -.00000587  00000+0 -41134-4 0  9993
2 48880  97.6601  89.9604 0001881 116.9294 243.2122 15.01253318133254
STARLINK-3005           
1 48881U 21059C   23327.92844272 -.00000994  00000+0 -72796-4 0  9999
2 48881  97.6593  89.9679 0001285  83.4847 276.6524 15.01250823133262
STARLINK-3096           
1 49131U 21082B   23327.92317451 -.00000872  00000+0 -65261-4 0  9992
2 49131  70.0007 204.2348 0002334 251.4786 108.6119 14.98333446121625
STARLINK-3090           
1 49132U 21082C   23327.89459304 -.00001886  00000+0 -15030-3 0  9997
2 49132  70.0026 244.3360 0002191 233.9415 126.1541 14.98333461120632
STARLINK-3077           
1 49133U 21082D   23327.88608458 -.00000999  00000+0 -75995-4 0  9994
2 49133  69.9998 244.3321 0002705 273.0302  87.0548 14.98321415120634
STARLINK-3078           
1 49134U 21082E   23327.94867541 -.00001213  00000+0 -93952-4 0  9995
2 49134  69.9991 244.1791 0002821 268.8314  91.2522 14.98319505121841
STARLINK-3073           
1 49135U 21082F   23327.91900429 -.00001031  00000+0 -78615-4 0  9993
2 49135  69.9990 204.2335 0002733 269.1349  90.9497 14.98318426121631
STARLINK-3084           
1 49136U 21082G   23327.91505822  .00000699  00000+0  66343-4 0  9994
2 49136  70.0015 224.2568 0002545 264.9709  95.1159 14.98326180121141
STARLINK-3055           
1 49137U 21082H   23327.91089322 -.00000449  00000+0 -29893-4 0  9991
2 49137  69.9995 224.2690 0002824 275.2256  84.8580 14.98315375121130
STARLINK-3058           
1 49138U 21082J   23327.94449934  .00000081  00000+0  14585-4 0  9996
2 49138  70.0009 244.1940 0002250 244.8322 115.2604 14.98323584120640
STARLINK-3057           
1 49139U 21082K   23327.91065595 -.00000101  00000+0 -65925-6 0  9992
2 49139  70.0007 204.2635 0002167 228.5569 131.5404 14.98320534121626
STARLINK-3118           
1 49140U 21082L   23327.83555077 -.00001608  00000+0 -12699-3 0  9994
2 49140  69.9989 204.4577 0002616 267.0512  93.0348 14.98324180121615
STARLINK-3093           
1 49141U 21082M   23327.94033066  .00006334  00000+0  53862-3 0  9992
2 49141  70.0009 244.2098 0002062 239.1849 120.9107 14.98296969121841
STARLINK-3042           
1 49142U 21082N   23327.89813918 -.00000317  00000+0 -18757-4 0  9991
2 49142  69.9997 204.3039 0002446 263.6709  96.4172 14.98323747121620
STARLINK-3109           
1 49143U 21082P   23327.90671774 -.00000294  00000+0 -16857-4 0  9999
2 49143  70.0003 224.2844 0002716 271.5001  88.5846 14.98320851122242
STARLINK-3100           
